KENT RIDGE 1            
1 41167U 15077B   26117.27559963  .00004796  00000+0  16721-3 0  9997
2 41167  14.9801 284.5191 0008316 241.1259 118.8228 15.22817301573326
GAOFEN-4                
1 41194U 15083A   26115.58798596 -.00000348  00000+0  00000+0 0  9992
2 41194   0.3731  82.6392 0003203 131.5552 316.7450  1.00267707 38002
JASON-3                 
1 41240U 16002A   26117.28419204 -.00000041  00000+0  82331-4 0  9993
2 41240  66.0415 232.8518 0008006 274.6972  85.3133 12.87626215480695
SENTINEL-3A             
1 41335U 16011A   26117.30225666  .00000117  00000+0  66427-4 0  9999
2 41335  98.6271 185.4099 0000988 100.4684 259.6608 14.26739313530806
ZIYUAN 3-02 (ZY 3-02)   
1 41556U 16033A   26117.28174388  .00007483  00000+0  33680-3 0  9996
2 41556  97.3849 194.0274 0014203 111.2782 248.9972 15.21282491550244
CARTOSAT-2C             
1 41599U 16040A   26117.27952431  .00002921  00000+0  14177-3 0  9995
2 41599  97.4525 177.9449 0008297 315.8933  44.1639 15.19248560545980
SKYSAT-C1               
1 41601U 16040C   26117.07114425  .00009407  00000+0  27540-3 0  9994
2 41601  96.9620 151.5820 0002553 163.0743 197.0587 15.35425723550023
LAPAN-A3                
1 41603U 16040E   26117.27530181  .00003733  00000+0  12019-3 0  9990
2 41603  97.1488 115.1092 0009942 187.1669 172.9433 15.32766819547018
GAOFEN-3                
1 41727U 16049A   26117.29926238  .00000116  00000+0  48438-4 0  9997
2 41727  98.4036 125.8511 0001123  64.4848 295.6458 14.42226481511311
SKYSAT-C4               
1 41771U 16058B   26117.32187349  .00019527  00000+0  38796-3 0  9993
2 41771  96.9220 141.2726 0003492  94.2312 265.9338 15.47000471537608
SKYSAT-C5               
1 41772U 16058C   26117.09572136  .00008177  00000+0  25295-3 0  9999
2 41772  97.0527 160.0302 0004954 109.1943 250.9837 15.33720592535918
SKYSAT-C2               
1 41773U 16058D   26117.04084119  .00012048  00000+0  29493-3 0  9990
2 41773  97.0217 141.0953 0002172 194.4288 165.6898 15.40903809537176
SKYSAT-C3               
1 41774U 16058E   26117.12456234  .00026789  00000+0  47166-3 0  9995
2 41774  96.9094 149.9935 0002745 103.3123 256.8437 15.50416321538192
ALSAT-1B                
1 41785U 16059C   26117.26700661  .00000638  00000+0  10845-3 0  9998
2 41785  97.7778 128.2272 0010252  37.2635 322.9282 14.72234894513081
PATHFINDER 1            
1 41787U 16059E   26117.27567686  .00000808  00000+0  14958-3 0  9997
2 41787  97.8177 118.8510 0028761  11.7064 348.4804 14.67599141512247
SCATSAT 1               
1 41790U 16059H   26117.15076639  .00001433  00000+0  19456-3 0  9994
2 41790  98.1223 180.3868 0055767  53.6237 307.0101 14.79413031 94040
GOKTURK 1A              
1 41875U 16073A   26117.28493057  .00000426  00000+0  92624-4 0  9995
2 41875  98.1303  12.7422 0001397  83.6371 276.4990 14.62794174501386
