[{"OBJECT_NAME":"KENT RIDGE 1","OBJECT_ID":"2015-077B","EPOCH":"2026-04-27T06:36:51.808032","MEAN_MOTION":15.22817301,"ECCENTRICITY":0.00083161,"INCLINATION":14.9801,"RA_OF_ASC_NODE":284.5191,"ARG_OF_PERICENTER":241.1259,"MEAN_ANOMALY":118.8228,"EPHEMERIS_TYPE":0,"CLASSIFICATION_TYPE":"U","NORAD_CAT_ID":41167,"ELEMENT_SET_NO":999,"REV_AT_EPOCH":57332,"BSTAR":0.00016721204,"MEAN_MOTION_DOT":4.796e-5,"MEAN_MOTION_DDOT":0},{"OBJECT_NAME":"GAOFEN-4","OBJECT_ID":"2015-083A","EPOCH":"2026-04-25T14:06:41.986944","MEAN_MOTION":1.00267707,"ECCENTRICITY":0.00032035,"INCLINATION":0.3731,"RA_OF_ASC_NODE":82.6392,"ARG_OF_PERICENTER":131.5552,"MEAN_ANOMALY":316.745,"EPHEMERIS_TYPE":0,"CLASSIFICATION_TYPE":"U","NORAD_CAT_ID":41194,"ELEMENT_SET_NO":999,"REV_AT_EPOCH":3800,"BSTAR":0,"MEAN_MOTION_DOT":-3.48e-6,"MEAN_MOTION_DDOT":0},{"OBJECT_NAME":"JASON-3","OBJECT_ID":"2016-002A","EPOCH":"2026-04-27T06:49:14.192256","MEAN_MOTION":12.87626215,"ECCENTRICITY":0.00080061,"INCLINATION":66.0415,"RA_OF_ASC_NODE":232.8518,"ARG_OF_PERICENTER":274.6972,"MEAN_ANOMALY":85.3133,"EPHEMERIS_TYPE":0,"CLASSIFICATION_TYPE":"U","NORAD_CAT_ID":41240,"ELEMENT_SET_NO":999,"REV_AT_EPOCH":48069,"BSTAR":8.2330869e-5,"MEAN_MOTION_DOT":-4.1e-7,"MEAN_MOTION_DDOT":0},{"OBJECT_NAME":"SENTINEL-3A","OBJECT_ID":"2016-011A","EPOCH":"2026-04-27T07:15:14.975424","MEAN_MOTION":14.26739313,"ECCENTRICITY":9.886e-5,"INCLINATION":98.6271,"RA_OF_ASC_NODE":185.4099,"ARG_OF_PERICENTER":100.4684,"MEAN_ANOMALY":259.6608,"EPHEMERIS_TYPE":0,"CLASSIFICATION_TYPE":"U","NORAD_CAT_ID":41335,"ELEMENT_SET_NO":999,"REV_AT_EPOCH":53080,"BSTAR":6.642659e-5,"MEAN_MOTION_DOT":1.17e-6,"MEAN_MOTION_DDOT":0},{"OBJECT_NAME":"ZIYUAN 3-02 (ZY 3-02)","OBJECT_ID":"2016-033A","EPOCH":"2026-04-27T06:45:42.671232","MEAN_MOTION":15.21282491,"ECCENTRICITY":0.00142032,"INCLINATION":97.3849,"RA_OF_ASC_NODE":194.0274,"ARG_OF_PERICENTER":111.2782,"MEAN_ANOMALY":248.9972,"EPHEMERIS_TYPE":0,"CLASSIFICATION_TYPE":"U","NORAD_CAT_ID":41556,"ELEMENT_SET_NO":999,"REV_AT_EPOCH":55024,"BSTAR":0.00033680011,"MEAN_MOTION_DOT":7.483e-5,"MEAN_MOTION_DDOT":0},{"OBJECT_NAME":"CARTOSAT-2C","OBJECT_ID":"2016-040A","EPOCH":"2026-04-27T06:42:30.900384","MEAN_MOTION":15.1924856,"ECCENTRICITY":0.00082977,"INCLINATION":97.4525,"RA_OF_ASC_NODE":177.9449,"ARG_OF_PERICENTER":315.8933,"MEAN_ANOMALY":44.1639,"EPHEMERIS_TYPE":0,"CLASSIFICATION_TYPE":"U","NORAD_CAT_ID":41599,"ELEMENT_SET_NO":999,"REV_AT_EPOCH":54598,"BSTAR":0.00014177246,"MEAN_MOTION_DOT":2.921e-5,"MEAN_MOTION_DDOT":0},{"OBJECT_NAME":"SKYSAT-C1","OBJECT_ID":"2016-040C","EPOCH":"2026-04-27T01:42:26.863200","MEAN_MOTION":15.35425723,"ECCENTRICITY":0.00025539,"INCLINATION":96.962,"RA_OF_ASC_NODE":151.582,"ARG_OF_PERICENTER":163.0743,"MEAN_ANOMALY":197.0587,"EPHEMERIS_TYPE":0,"CLASSIFICATION_TYPE":"U","NORAD_CAT_ID":41601,"ELEMENT_SET_NO":999,"REV_AT_EPOCH":55002,"BSTAR":0.00027540086,"MEAN_MOTION_DOT":9.407e-5,"MEAN_MOTION_DDOT":0},{"OBJECT_NAME":"LAPAN-A3","OBJECT_ID":"2016-040E","EPOCH":"2026-04-27T06:36:26.076384","MEAN_MOTION":15.32766819,"ECCENTRICITY":0.00099429,"INCLINATION":97.1488,"RA_OF_ASC_NODE":115.1092,"ARG_OF_PERICENTER":187.1669,"MEAN_ANOMALY":172.9433,"EPHEMERIS_TYPE":0,"CLASSIFICATION_TYPE":"U","NORAD_CAT_ID":41603,"ELEMENT_SET_NO":999,"REV_AT_EPOCH":54701,"BSTAR":0.0001201889,"MEAN_MOTION_DOT":3.733e-5,"MEAN_MOTION_DDOT":0},{"OBJECT_NAME":"GAOFEN-3","OBJECT_ID":"2016-049A","EPOCH":"2026-04-27T07:10:56.269632","MEAN_MOTION":14.42226481,"ECCENTRICITY":0.00011232,"INCLINATION":98.4036,"RA_OF_ASC_NODE":125.8511,"ARG_OF_PERICENTER":64.4848,"MEAN_ANOMALY":295.6458,"EPHEMERIS_TYPE":0,"CLASSIFICATION_TYPE":"U","NORAD_CAT_ID":41727,"ELEMENT_SET_NO":999,"REV_AT_EPOCH":51131,"BSTAR":4.8437915e-5,"MEAN_MOTION_DOT":1.16e-6,"MEAN_MOTION_DDOT":0},{"OBJECT_NAME":"SKYSAT-C4","OBJECT_ID":"2016-058B","EPOCH":"2026-04-27T07:43:29.869536","MEAN_MOTION":15.47000471,"ECCENTRICITY":0.00034929,"INCLINATION":96.922,"RA_OF_ASC_NODE":141.2726,"ARG_OF_PERICENTER":94.2312,"MEAN_ANOMALY":265.9338,"EPHEMERIS_TYPE":0,"CLASSIFICATION_TYPE":"U","NORAD_CAT_ID":41771,"ELEMENT_SET_NO":999,"REV_AT_EPOCH":53760,"BSTAR":0.0003879605,"MEAN_MOTION_DOT":0.00019527,"MEAN_MOTION_DDOT":0},{"OBJECT_NAME":"SKYSAT-C5","OBJECT_ID":"2016-058C","EPOCH":"2026-04-27T02:17:50.325504","MEAN_MOTION":15.33720592,"ECCENTRICITY":0.0004954,"INCLINATION":97.0527,"RA_OF_ASC_NODE":160.0302,"ARG_OF_PERICENTER":109.1943,"MEAN_ANOMALY":250.9837,"EPHEMERIS_TYPE":0,"CLASSIFICATION_TYPE":"U","NORAD_CAT_ID":41772,"ELEMENT_SET_NO":999,"REV_AT_EPOCH":53591,"BSTAR":0.00025295356,"MEAN_MOTION_DOT":8.177e-5,"MEAN_MOTION_DDOT":0},{"OBJECT_NAME":"SKYSAT-C2","OBJECT_ID":"2016-058D","EPOCH":"2026-04-27T00:58:48.678816","MEAN_MOTION":15.40903809,"ECCENTRICITY":0.00021721,"INCLINATION":97.0217,"RA_OF_ASC_NODE":141.0953,"ARG_OF_PERICENTER":194.4288,"MEAN_ANOMALY":165.6898,"EPHEMERIS_TYPE":0,"CLASSIFICATION_TYPE":"U","NORAD_CAT_ID":41773,"ELEMENT_SET_NO":999,"REV_AT_EPOCH":53717,"BSTAR":0.00029492721,"MEAN_MOTION_DOT":0.00012048,"MEAN_MOTION_DDOT":0},{"OBJECT_NAME":"SKYSAT-C3","OBJECT_ID":"2016-058E","EPOCH":"2026-04-27T02:59:22.186176","MEAN_MOTION":15.50416321,"ECCENTRICITY":0.00027459,"INCLINATION":96.9094,"RA_OF_ASC_NODE":149.9935,"ARG_OF_PERICENTER":103.3123,"MEAN_ANOMALY":256.8437,"EPHEMERIS_TYPE":0,"CLASSIFICATION_TYPE":"U","NORAD_CAT_ID":41774,"ELEMENT_SET_NO":999,"REV_AT_EPOCH":53819,"BSTAR":0.00047166057,"MEAN_MOTION_DOT":0.00026789,"MEAN_MOTION_DDOT":0},{"OBJECT_NAME":"ALSAT-1B","OBJECT_ID":"2016-059C","EPOCH":"2026-04-27T06:24:29.371104","MEAN_MOTION":14.72234894,"ECCENTRICITY":0.00102523,"INCLINATION":97.7778,"RA_OF_ASC_NODE":128.2272,"ARG_OF_PERICENTER":37.2635,"MEAN_ANOMALY":322.9282,"EPHEMERIS_TYPE":0,"CLASSIFICATION_TYPE":"U","NORAD_CAT_ID":41785,"ELEMENT_SET_NO":999,"REV_AT_EPOCH":51308,"BSTAR":0.00010845463,"MEAN_MOTION_DOT":6.38e-6,"MEAN_MOTION_DDOT":0},{"OBJECT_NAME":"PATHFINDER 1","OBJECT_ID":"2016-059E","EPOCH":"2026-04-27T06:36:58.480704","MEAN_MOTION":14.67599141,"ECCENTRICITY":0.00287617,"INCLINATION":97.8177,"RA_OF_ASC_NODE":118.851,"ARG_OF_PERICENTER":11.7064,"MEAN_ANOMALY":348.4804,"EPHEMERIS_TYPE":0,"CLASSIFICATION_TYPE":"U","NORAD_CAT_ID":41787,"ELEMENT_SET_NO":999,"REV_AT_EPOCH":51224,"BSTAR":0.00014957902,"MEAN_MOTION_DOT":8.08e-6,"MEAN_MOTION_DDOT":0},{"OBJECT_NAME":"SCATSAT 1","OBJECT_ID":"2016-059H","EPOCH":"2026-04-27T03:37:06.216096","MEAN_MOTION":14.79413031,"ECCENTRICITY":0.00557676,"INCLINATION":98.1223,"RA_OF_ASC_NODE":180.3868,"ARG_OF_PERICENTER":53.6237,"MEAN_ANOMALY":307.0101,"EPHEMERIS_TYPE":0,"CLASSIFICATION_TYPE":"U","NORAD_CAT_ID":41790,"ELEMENT_SET_NO":999,"REV_AT_EPOCH":9404,"BSTAR":0.00019455739,"MEAN_MOTION_DOT":1.433e-5,"MEAN_MOTION_DDOT":0},{"OBJECT_NAME":"GOKTURK 1A","OBJECT_ID":"2016-073A","EPOCH":"2026-04-27T06:50:18.001248","MEAN_MOTION":14.62794174,"ECCENTRICITY":0.0001397,"INCLINATION":98.1303,"RA_OF_ASC_NODE":12.7422,"ARG_OF_PERICENTER":83.6371,"MEAN_ANOMALY":276.499,"EPHEMERIS_TYPE":0,"CLASSIFICATION_TYPE":"U","NORAD_CAT_ID":41875,"ELEMENT_SET_NO":999,"REV_AT_EPOCH":50138,"BSTAR":9.2624213e-5,"MEAN_MOTION_DOT":4.26e-6,"MEAN_MOTION_DDOT":0}]
